[{"OBJECT_NAME":"MATS","OBJECT_ID":"2022-147A","EPOCH":"2026-03-09T23:39:00.807264","MEAN_MOTION":15.0466868,"ECCENTRICITY":0.00129708,"INCLINATION":97.6844,"RA_OF_ASC_NODE":71.061,"ARG_OF_PERICENTER":166.9988,"MEAN_ANOMALY":193.1575,"EPHEMERIS_TYPE":0,"CLASSIFICATION_TYPE":"U","NORAD_CAT_ID":54227,"ELEMENT_SET_NO":999,"REV_AT_EPOCH":18284,"BSTAR":0.00029670702,"MEAN_MOTION_DOT":4.118e-5,"MEAN_MOTION_DDOT":0},{"OBJECT_NAME":"STARLINK-35094","OBJECT_ID":"2025-191S","EPOCH":"2026-03-09T15:53:13.704288","MEAN_MOTION":15.05657783,"ECCENTRICITY":0.00023323,"INCLINATION":97.6026,"RA_OF_ASC_NODE":301.4709,"ARG_OF_PERICENTER":96.4121,"MEAN_ANOMALY":263.7371,"EPHEMERIS_TYPE":0,"CLASSIFICATION_TYPE":"U","NORAD_CAT_ID":65395,"ELEMENT_SET_NO":999,"REV_AT_EPOCH":3027,"BSTAR":0.0001593648,"MEAN_MOTION_DOT":2.24e-5,"MEAN_MOTION_DDOT":0}]
